CCSDS_OMM_VERS = 2.0
CREATION_DATE  = 
ORIGINATOR     = 

OBJECT_NAME    = COSMOS 1743
OBJECT_ID      = 1986-034A
CENTER_NAME    = EARTH
REF_FRAME      = TEME
TIME_SYSTEM    = UTC
MEAN_ELEMENT_THEORY = SGP/SGP4

EPOCH          = 2025-11-02T10:54:19.867104
MEAN_MOTION    = 15.49374407
ECCENTRICITY   = .0008732
INCLINATION    = 82.5390
RA_OF_ASC_NODE = 206.3394
ARG_OF_PERICENTER = 48.7401
MEAN_ANOMALY   = 311.4600

EPHEMERIS_TYPE = 0
CLASSIFICATION_TYPE = U
NORAD_CAT_ID   = 16719
ELEMENT_SET_NO = 999
REV_AT_EPOCH   = 16049
BSTAR          = .50274E-3
MEAN_MOTION_DOT = .27683E-3
MEAN_MOTION_DDOT = 0

CCSDS_OMM_VERS = 2.0
CREATION_DATE  = 
ORIGINATOR     = 

OBJECT_NAME    = SL-14 R/B
OBJECT_ID      = 1986-046B
CENTER_NAME    = EARTH
REF_FRAME      = TEME
TIME_SYSTEM    = UTC
MEAN_ELEMENT_THEORY = SGP/SGP4

EPOCH          = 2025-11-02T10:22:52.675968
MEAN_MOTION    = 14.85423740
ECCENTRICITY   = .0021726
INCLINATION    = 82.4842
RA_OF_ASC_NODE = 200.3739
ARG_OF_PERICENTER = 290.3601
MEAN_ANOMALY   = 69.5280

EPHEMERIS_TYPE = 0
CLASSIFICATION_TYPE = U
NORAD_CAT_ID   = 16792
ELEMENT_SET_NO = 999
REV_AT_EPOCH   = 10751
BSTAR          = .69266E-4
MEAN_MOTION_DOT = .623E-5
MEAN_MOTION_DDOT = 0

CCSDS_OMM_VERS = 2.0
CREATION_DATE  = 
ORIGINATOR     = 

OBJECT_NAME    = SL-14 R/B
OBJECT_ID      = 1986-055B
CENTER_NAME    = EARTH
REF_FRAME      = TEME
TIME_SYSTEM    = UTC
MEAN_ELEMENT_THEORY = SGP/SGP4

EPOCH          = 2025-11-03T18:30:50.250816
MEAN_MOTION    = 14.85463435
ECCENTRICITY   = .0019936
INCLINATION    = 82.5205
RA_OF_ASC_NODE = 244.9837
ARG_OF_PERICENTER = 32.9500
MEAN_ANOMALY   = 346.4617

EPHEMERIS_TYPE = 0
CLASSIFICATION_TYPE = U
NORAD_CAT_ID   = 16882
ELEMENT_SET_NO = 999
REV_AT_EPOCH   = 10067
BSTAR          = .80156E-4
MEAN_MOTION_DOT = .718E-5
MEAN_MOTION_DDOT = 0

CCSDS_OMM_VERS = 2.0
CREATION_DATE  = 
ORIGINATOR     = 

OBJECT_NAME    = AJISAI (EGS)
OBJECT_ID      = 1986-061A
CENTER_NAME    = EARTH
REF_FRAME      = TEME
TIME_SYSTEM    = UTC
MEAN_ELEMENT_THEORY = SGP/SGP4

EPOCH          = 2025-11-03T19:23:41.002080
MEAN_MOTION    = 12.44514087
ECCENTRICITY   = .0011147
INCLINATION    = 50.0073
RA_OF_ASC_NODE = 120.4293
ARG_OF_PERICENTER = 327.6483
MEAN_ANOMALY   = 164.3753

EPHEMERIS_TYPE = 0
CLASSIFICATION_TYPE = U
NORAD_CAT_ID   = 16908
ELEMENT_SET_NO = 999
REV_AT_EPOCH   = 45232
BSTAR          = -.59562E-4
MEAN_MOTION_DOT = -.106E-5
MEAN_MOTION_DDOT = 0

CCSDS_OMM_VERS = 2.0
CREATION_DATE  = 
ORIGINATOR     = 

OBJECT_NAME    = COSMOS 1812
OBJECT_ID      = 1987-003A
CENTER_NAME    = EARTH
REF_FRAME      = TEME
TIME_SYSTEM    = UTC
MEAN_ELEMENT_THEORY = SGP/SGP4

EPOCH          = 2025-11-02T11:33:22.274784
MEAN_MOTION    = 15.67655791
ECCENTRICITY   = .000365
INCLINATION    = 82.4904
RA_OF_ASC_NODE = 335.3259
ARG_OF_PERICENTER = 168.2230
MEAN_ANOMALY   = 191.9116

EPHEMERIS_TYPE = 0
CLASSIFICATION_TYPE = U
NORAD_CAT_ID   = 17295
ELEMENT_SET_NO = 999
REV_AT_EPOCH   = 12433
BSTAR          = .55405E-3
MEAN_MOTION_DOT = .60769E-3
MEAN_MOTION_DDOT = 0

CCSDS_OMM_VERS = 2.0
CREATION_DATE  = 
ORIGINATOR     = 

OBJECT_NAME    = SL-14 R/B
OBJECT_ID      = 1987-024B
CENTER_NAME    = EARTH
REF_FRAME      = TEME
TIME_SYSTEM    = UTC
MEAN_ELEMENT_THEORY = SGP/SGP4

EPOCH          = 2025-11-02T10:40:30.700128
MEAN_MOTION    = 14.85962140
ECCENTRICITY   = .001747
INCLINATION    = 82.5306
RA_OF_ASC_NODE = 212.2997
ARG_OF_PERICENTER = 326.7767
MEAN_ANOMALY   = 33.2351

EPHEMERIS_TYPE = 0
CLASSIFICATION_TYPE = U
NORAD_CAT_ID   = 17567
ELEMENT_SET_NO = 999
REV_AT_EPOCH   = 6923
BSTAR          = .73571E-4
MEAN_MOTION_DOT = .668E-5
MEAN_MOTION_DDOT = 0

CCSDS_OMM_VERS = 2.0
CREATION_DATE  = 
ORIGINATOR     = 

OBJECT_NAME    = COSMOS 1833
OBJECT_ID      = 1987-027A
CENTER_NAME    = EARTH
REF_FRAME      = TEME
TIME_SYSTEM    = UTC
MEAN_ELEMENT_THEORY = SGP/SGP4

EPOCH          = 2025-11-02T05:24:17.786304
MEAN_MOTION    = 14.13024192
ECCENTRICITY   = .00206708
INCLINATION    = 70.9161
RA_OF_ASC_NODE = 233.9425
ARG_OF_PERICENTER = 29.2030
MEAN_ANOMALY   = 331.0242

EPHEMERIS_TYPE = 0
CLASSIFICATION_TYPE = U
NORAD_CAT_ID   = 17589
ELEMENT_SET_NO = 999
REV_AT_EPOCH   = 99230
BSTAR          = -.14170739E-3
MEAN_MOTION_DOT = -.313E-5
MEAN_MOTION_DDOT = 0

CCSDS_OMM_VERS = 2.0
CREATION_DATE  = 
ORIGINATOR     = 

OBJECT_NAME    = SL-16 R/B
OBJECT_ID      = 1987-027B
CENTER_NAME    = EARTH
REF_FRAME      = TEME
TIME_SYSTEM    = UTC
MEAN_ELEMENT_THEORY = SGP/SGP4

EPOCH          = 2025-11-02T08:34:10.541280
MEAN_MOTION    = 14.17142644
ECCENTRICITY   = .0006816
INCLINATION    = 71.0018
RA_OF_ASC_NODE = 184.8106
ARG_OF_PERICENTER = 302.2096
MEAN_ANOMALY   = 57.8366

EPHEMERIS_TYPE = 0
CLASSIFICATION_TYPE = U
NORAD_CAT_ID   = 17590
ELEMENT_SET_NO = 999
REV_AT_EPOCH   = 99734
BSTAR          = .10452E-3
MEAN_MOTION_DOT = .163E-5
MEAN_MOTION_DDOT = 0

CCSDS_OMM_VERS = 2.0
CREATION_DATE  = 
ORIGINATOR     = 

OBJECT_NAME    = SL-14 R/B
OBJECT_ID      = 1987-038B
CENTER_NAME    = EARTH
REF_FRAME      = TEME
TIME_SYSTEM    = UTC
MEAN_ELEMENT_THEORY = SGP/SGP4

EPOCH          = 2025-11-03T14:05:24.405792
MEAN_MOTION    = 14.85198645
ECCENTRICITY   = .0018407
INCLINATION    = 82.5027
RA_OF_ASC_NODE = 55.5683
ARG_OF_PERICENTER = 217.9830
MEAN_ANOMALY   = 142.0089

EPHEMERIS_TYPE = 0
CLASSIFICATION_TYPE = U
NORAD_CAT_ID   = 17912
ELEMENT_SET_NO = 999
REV_AT_EPOCH   = 6051
BSTAR          = .80232E-4
MEAN_MOTION_DOT = .713E-5
MEAN_MOTION_DDOT = 0

CCSDS_OMM_VERS = 2.0
CREATION_DATE  = 
ORIGINATOR     = 

OBJECT_NAME    = COSMOS 1844
OBJECT_ID      = 1987-041A
CENTER_NAME    = EARTH
REF_FRAME      = TEME
TIME_SYSTEM    = UTC
MEAN_ELEMENT_THEORY = SGP/SGP4

EPOCH          = 2025-11-03T17:43:56.730720
MEAN_MOTION    = 14.14511571
ECCENTRICITY   = .0032249
INCLINATION    = 70.8975
RA_OF_ASC_NODE = 299.8305
ARG_OF_PERICENTER = 214.8720
MEAN_ANOMALY   = 145.0290

EPHEMERIS_TYPE = 0
CLASSIFICATION_TYPE = U
NORAD_CAT_ID   = 17973
ELEMENT_SET_NO = 999
REV_AT_EPOCH   = 98577
BSTAR          = .22929E-3
MEAN_MOTION_DOT = .394E-5
MEAN_MOTION_DDOT = 0

CCSDS_OMM_VERS = 2.0
CREATION_DATE  = 
ORIGINATOR     = 

OBJECT_NAME    = SL-14 R/B
OBJECT_ID      = 1987-055B
CENTER_NAME    = EARTH
REF_FRAME      = TEME
TIME_SYSTEM    = UTC
MEAN_ELEMENT_THEORY = SGP/SGP4

EPOCH          = 2025-11-03T17:17:39.789024
MEAN_MOTION    = 14.85455803
ECCENTRICITY   = .0022134
INCLINATION    = 82.4964
RA_OF_ASC_NODE = 107.7602
ARG_OF_PERICENTER = 71.4326
MEAN_ANOMALY   = 288.9292

EPHEMERIS_TYPE = 0
CLASSIFICATION_TYPE = U
NORAD_CAT_ID   = 18153
ELEMENT_SET_NO = 999
REV_AT_EPOCH   = 5123
BSTAR          = .69973E-4
MEAN_MOTION_DOT = .63E-5
MEAN_MOTION_DDOT = 0

CCSDS_OMM_VERS = 2.0
CREATION_DATE  = 
ORIGINATOR     = 

OBJECT_NAME    = COSMOS 1867
OBJECT_ID      = 1987-060A
CENTER_NAME    = EARTH
REF_FRAME      = TEME
TIME_SYSTEM    = UTC
MEAN_ELEMENT_THEORY = SGP/SGP4

EPOCH          = 2025-11-03T16:32:43.617408
MEAN_MOTION    = 14.31476058
ECCENTRICITY   = .0013741
INCLINATION    = 65.0101
RA_OF_ASC_NODE = 299.5585
ARG_OF_PERICENTER = 267.2385
MEAN_ANOMALY   = 92.7127

EPHEMERIS_TYPE = 0
CLASSIFICATION_TYPE = U
NORAD_CAT_ID   = 18187
ELEMENT_SET_NO = 999
REV_AT_EPOCH   = 190
BSTAR          = .42293E-4
MEAN_MOTION_DOT = .12E-6
MEAN_MOTION_DDOT = 0

